IRIDIUM 33 DEB          
1 38468U 97051ZV  17344.65863807  .00001786  00000-0  63393-3 0  9992
2 38468  86.3568 229.9805 0078729 248.3385 110.9412 14.32255363398527
